start=new Date('2021-11-23T00:00:00.000Z').valueOf();
sats=[{"TLE_LINE2":"2 48132  53.0578  12.1777 0001416  64.6080 295.5056 15.06401988 36024","LAUNCH_DATE":"2021-04-07","BSTAR":"0.00010181000000","DECAY_DATE":null,"EPOCH":"2021-11-22T08:21:39.080736","INCLINATION":"53.0578","MEAN_MOTION_DDOT":"0.0000000000000","APOAPSIS":"548.188","MEAN_MOTION":"15.06401988","EPHEMERIS_TYPE":"0","COUNTRY_CODE":"US","OBJECT_ID":"2021-027AS","TIME_SYSTEM":"UTC","CENTER_NAME":"EARTH","ECCENTRICITY":"0.00014160","REF_FRAME":"TEME","MEAN_ANOMALY":"295.5056","GP_ID":"190264409","MEAN_MOTION_DOT":"0.00001235","ARG_OF_PERICENTER":"64.6080","OBJECT_NAME":"STARLINK-2474","RCS_SIZE":"LARGE","PERIOD":"95.592","TLE_LINE1":"1 48132U 21027AS  21326.34836899  .00001235  00000-0  10181-3 0  9999","REV_AT_EPOCH":"3602","OBJECT_TYPE":"PAYLOAD","FILE":"3221278","CLASSIFICATION_TYPE":"U","NORAD_CAT_ID":"48132","SITE":"AFETR","MEAN_ELEMENT_THEORY":"SGP4","PERIAPSIS":"546.227","ELEMENT_SET_NO":"999","SEMIMAJOR_AXIS":"6925.342","RA_OF_ASC_NODE":"12.1777"},{"EPHEMERIS_TYPE":"0","COUNTRY_CODE":"US","OBJECT_ID":"2021-027AT","TIME_SYSTEM":"UTC","CENTER_NAME":"EARTH","ECCENTRICITY":"0.00013640","MEAN_ANOMALY":"292.6909","REF_FRAME":"TEME","GP_ID":"190270374","MEAN_MOTION_DOT":"0.00002100","TLE_LINE2":"2 48133  53.0577  11.3002 0001364  67.4225 292.6909 15.06403299 35661","BSTAR":"0.00015982000000","LAUNCH_DATE":"2021-04-07","DECAY_DATE":null,"EPOCH":"2021-11-22T13:02:58.042176","INCLINATION":"53.0577","MEAN_MOTION_DDOT":"0.0000000000000","APOAPSIS":"548.148","MEAN_MOTION":"15.06403299","CLASSIFICATION_TYPE":"U","NORAD_CAT_ID":"48133","SITE":"AFETR","MEAN_ELEMENT_THEORY":"SGP4","PERIAPSIS":"546.259","ELEMENT_SET_NO":"999","SEMIMAJOR_AXIS":"6925.338","RA_OF_ASC_NODE":"11.3002","OBJECT_NAME":"STARLINK-2475","ARG_OF_PERICENTER":"67.4225","RCS_SIZE":"LARGE","PERIOD":"95.592","TLE_LINE1":"1 48133U 21027AT  21326.54372734  .00002100  00000-0  15982-3 0  9991","REV_AT_EPOCH":"3566","OBJECT_TYPE":"PAYLOAD","FILE":"3221495"},{"COUNTRY_CODE":"US","EPHEMERIS_TYPE":"0","OBJECT_ID":"2021-027AU","TIME_SYSTEM":"UTC","CENTER_NAME":"EARTH","ECCENTRICITY":"0.00014180","MEAN_ANOMALY":"295.6075","REF_FRAME":"TEME","GP_ID":"190270496","MEAN_MOTION_DOT":"0.00001650","TLE_LINE2":"2 48134  53.0573   9.8750 0001418  64.5060 295.6075 15.06407435 35714","DECAY_DATE":null,"LAUNCH_DATE":"2021-04-07","BSTAR":"0.00012959000000","EPOCH":"2021-11-22T20:39:28.131264","INCLINATION":"53.0573","APOAPSIS":"548.173","MEAN_MOTION_DDOT":"0.0000000000000","MEAN_MOTION":"15.06407435","CLASSIFICATION_TYPE":"U","NORAD_CAT_ID":"48134","SITE":"AFETR","ELEMENT_SET_NO":"999","PERIAPSIS":"546.209","MEAN_ELEMENT_THEORY":"SGP4","SEMIMAJOR_AXIS":"6925.326","RA_OF_ASC_NODE":"9.8750","OBJECT_NAME":"STARLINK-2476","ARG_OF_PERICENTER":"64.5060","RCS_SIZE":"LARGE","PERIOD":"95.592","TLE_LINE1":"1 48134U 21027AU  21326.86074226  .00001650  00000-0  12959-3 0  9992","REV_AT_EPOCH":"3571","OBJECT_TYPE":"PAYLOAD","FILE":"3221503"},{"CLASSIFICATION_TYPE":"U","NORAD_CAT_ID":"48135","SITE":"AFETR","PERIAPSIS":"546.237","ELEMENT_SET_NO":"999","MEAN_ELEMENT_THEORY":"SGP4","SEMIMAJOR_AXIS":"6925.388","RA_OF_ASC_NODE":"14.9393","OBJECT_NAME":"STARLINK-2478","ARG_OF_PERICENTER":"62.5084","RCS_SIZE":"LARGE","PERIOD":"95.593","REV_AT_EPOCH":"3563","TLE_LINE1":"1 48135U 21027AV  21326.84641870  .00002966  00000-0  21801-3 0  9993","OBJECT_TYPE":"PAYLOAD","FILE":"3221504","COUNTRY_CODE":"US","EPHEMERIS_TYPE":"0","OBJECT_ID":"2021-027AV","TIME_SYSTEM":"UTC","CENTER_NAME":"EARTH","ECCENTRICITY":"0.00014670","REF_FRAME":"TEME","MEAN_ANOMALY":"297.6054","GP_ID":"190270822","MEAN_MOTION_DOT":"0.00002966","TLE_LINE2":"2 48135  53.0570  14.9393 0001467  62.5084 297.6054 15.06387003 35638","DECAY_DATE":null,"BSTAR":"0.00021801000000","LAUNCH_DATE":"2021-04-07","EPOCH":"2021-11-22T20:18:50.575680","INCLINATION":"53.0570","APOAPSIS":"548.269","MEAN_MOTION_DDOT":"0.0000000000000","MEAN_MOTION":"15.06387003"},{"NORAD_CAT_ID":"48136","CLASSIFICATION_TYPE":"U","MEAN_ELEMENT_THEORY":"SGP4","ELEMENT_SET_NO":"999","PERIAPSIS":"546.435","SITE":"AFETR","RA_OF_ASC_NODE":"11.2399","SEMIMAJOR_AXIS":"6925.357","RCS_SIZE":"LARGE","ARG_OF_PERICENTER":"64.4887","OBJECT_NAME":"STARLINK-2479","REV_AT_EPOCH":"3566","TLE_LINE1":"1 48136U 21027AW  21326.55478816  .00000038  00000-0  21449-4 0  9997","PERIOD":"95.592","FILE":"3221504","OBJECT_TYPE":"PAYLOAD","OBJECT_ID":"2021-027AW","EPHEMERIS_TYPE":"0","COUNTRY_CODE":"US","CENTER_NAME":"EARTH","TIME_SYSTEM":"UTC","ECCENTRICITY":"0.00011370","MEAN_MOTION_DOT":"0.00000038","GP_ID":"190270514","REF_FRAME":"TEME","MEAN_ANOMALY":"295.6220","BSTAR":"0.00002144900000","LAUNCH_DATE":"2021-04-07","DECAY_DATE":null,"TLE_LINE2":"2 48136  53.0568  11.2399 0001137  64.4887 295.6220 15.06397108 35661","INCLINATION":"53.0568","EPOCH":"2021-11-22T13:18:53.697024","MEAN_MOTION":"15.06397108","MEAN_MOTION_DDOT":"0.0000000000000","APOAPSIS":"548.010"},{"LAUNCH_DATE":"2021-04-07","BSTAR":"0.00017257000000","DECAY_DATE":null,"TLE_LINE2":"2 48137  53.0519 351.7240 0001530  58.0993 302.0145 15.06397554 36327","INCLINATION":"53.0519","EPOCH":"2021-11-22T10:46:15.277152","MEAN_MOTION":"15.06397554","MEAN_MOTION_DDOT":"0.0000000000000","APOAPSIS":"548.281","OBJECT_ID":"2021-027AX","EPHEMERIS_TYPE":"0","COUNTRY_CODE":"US","CENTER_NAME":"EARTH","TIME_SYSTEM":"UTC","ECCENTRICITY":"0.00015300","MEAN_MOTION_DOT":"0.00002290","GP_ID":"190265161","MEAN_ANOMALY":"302.0145","REF_FRAME":"TEME","RCS_SIZE":"LARGE","ARG_OF_PERICENTER":"58.0993","OBJECT_NAME":"STARLINK-2480","REV_AT_EPOCH":"3632","TLE_LINE1":"1 48137U 21027AX  21326.44878793  .00002290  00000-0  17257-3 0  9997","PERIOD":"95.592","FILE":"3221278","OBJECT_TYPE":"PAYLOAD","NORAD_CAT_ID":"48137","CLASSIFICATION_TYPE":"U","MEAN_ELEMENT_THEORY":"SGP4","PERIAPSIS":"546.161","ELEMENT_SET_NO":"999","SITE":"AFETR","RA_OF_ASC_NODE":"351.7240","SEMIMAJOR_AXIS":"6925.356"},{"MEAN_MOTION_DDOT":"0.0000000000000","APOAPSIS":"548.263","MEAN_MOTION":"15.06399027","EPOCH":"2021-11-22T12:57:39.948480","INCLINATION":"53.0578","TLE_LINE2":"2 48138  53.0578  11.3198 0001511  60.7422 299.3718 15.06399027 35656","BSTAR":"0.00013691000000","LAUNCH_DATE":"2021-04-07","DECAY_DATE":null,"REF_FRAME":"TEME","MEAN_ANOMALY":"299.3718","GP_ID":"190270535","MEAN_MOTION_DOT":"0.00001758","ECCENTRICITY":"0.00015110","TIME_SYSTEM":"UTC","CENTER_NAME":"EARTH","EPHEMERIS_TYPE":"0","COUNTRY_CODE":"US","OBJECT_ID":"2021-027AY","OBJECT_TYPE":"PAYLOAD","FILE":"3221505","PERIOD":"95.592","REV_AT_EPOCH":"3565","TLE_LINE1":"1 48138U 21027AY  21326.54004570  .00001758  00000-0  13691-3 0  9999","ARG_OF_PERICENTER":"60.7422","OBJECT_NAME":"STARLINK-2481","RCS_SIZE":"LARGE","SEMIMAJOR_AXIS":"6925.352","RA_OF_ASC_NODE":"11.3198","SITE":"AFETR","MEAN_ELEMENT_THEORY":"SGP4","PERIAPSIS":"546.170","ELEMENT_SET_NO":"999","CLASSIFICATION_TYPE":"U","NORAD_CAT_ID":"48138"},{"TLE_LINE2":"2 48139  53.0556 351.6457 0001676  65.5417 294.5747 15.06396033 36339","LAUNCH_DATE":"2021-04-07","BSTAR":"0.00010787000000","DECAY_DATE":null,"EPOCH":"2021-11-22T11:08:51.845280","INCLINATION":"53.0556","MEAN_MOTION_DDOT":"0.0000000000000","APOAPSIS":"548.386","MEAN_MOTION":"15.06396033","EPHEMERIS_TYPE":"0","COUNTRY_CODE":"US","OBJECT_ID":"2021-027AZ","TIME_SYSTEM":"UTC","CENTER_NAME":"EARTH","ECCENTRICITY":"0.00016760","REF_FRAME":"TEME","MEAN_ANOMALY":"294.5747","GP_ID":"190263659","MEAN_MOTION_DOT":"0.00001325","ARG_OF_PERICENTER":"65.5417","OBJECT_NAME":"STARLINK-2482","RCS_SIZE":"LARGE","PERIOD":"95.592","TLE_LINE1":"1 48139U 21027AZ  21326.46448895  .00001325  00000-0  10787-3 0  9996","REV_AT_EPOCH":"3633","OBJECT_TYPE":"PAYLOAD","FILE":"3221278","CLASSIFICATION_TYPE":"U","NORAD_CAT_ID":"48139","SITE":"AFETR","MEAN_ELEMENT_THEORY":"SGP4","PERIAPSIS":"546.065","ELEMENT_SET_NO":"999","SEMIMAJOR_AXIS":"6925.361","RA_OF_ASC_NODE":"351.6457"},{"SEMIMAJOR_AXIS":"6925.346","RA_OF_ASC_NODE":"11.1971","CLASSIFICATION_TYPE":"U","NORAD_CAT_ID":"48140","SITE":"AFETR","PERIAPSIS":"546.168","ELEMENT_SET_NO":"999","MEAN_ELEMENT_THEORY":"SGP4","PERIOD":"95.592","REV_AT_EPOCH":"3606","TLE_LINE1":"1 48140U 21027BA  21326.56489966  .00000591  00000-0  58577-4 0  9997","OBJECT_TYPE":"PAYLOAD","FILE":"3221278","ARG_OF_PERICENTER":"66.4241","OBJECT_NAME":"STARLINK-2483","RCS_SIZE":"LARGE","ECCENTRICITY":"0.00015050","MEAN_ANOMALY":"293.6906","REF_FRAME":"TEME","MEAN_MOTION_DOT":"0.00000591","GP_ID":"190264410","COUNTRY_CODE":"US","EPHEMERIS_TYPE":"0","OBJECT_ID":"2021-027BA","TIME_SYSTEM":"UTC","CENTER_NAME":"EARTH","EPOCH":"2021-11-22T13:33:27.330624","INCLINATION":"53.0573","APOAPSIS":"548.253","MEAN_MOTION_DDOT":"0.0000000000000","MEAN_MOTION":"15.06400981","TLE_LINE2":"2 48140  53.0573  11.1971 0001505  66.4241 293.6906 15.06400981 36060","DECAY_DATE":null,"BSTAR":"0.00005857700000","LAUNCH_DATE":"2021-04-07"},{"RA_OF_ASC_NODE":"9.9188","SEMIMAJOR_AXIS":"6925.315","SITE":"AFETR","ELEMENT_SET_NO":"999","PERIAPSIS":"546.094","MEAN_ELEMENT_THEORY":"SGP4","CLASSIFICATION_TYPE":"U","NORAD_CAT_ID":"48141","OBJECT_TYPE":"PAYLOAD","FILE":"3221512","PERIOD":"95.591","TLE_LINE1":"1 48141U 21027BB  21326.85336274  .00003166  00000-0  23125-3 0  9994","REV_AT_EPOCH":"3571","ARG_OF_PERICENTER":"64.9832","OBJECT_NAME":"STARLINK-2484","RCS_SIZE":"LARGE","REF_FRAME":"TEME","MEAN_ANOMALY":"295.1320","MEAN_MOTION_DOT":"0.00003166","GP_ID":"190271153","ECCENTRICITY":"0.00015680","TIME_SYSTEM":"UTC","CENTER_NAME":"EARTH","COUNTRY_CODE":"US","EPHEMERIS_TYPE":"0","OBJECT_ID":"2021-027BB","APOAPSIS":"548.266","MEAN_MOTION_DDOT":"0.0000000000000","MEAN_MOTION":"15.06410924","EPOCH":"2021-11-22T20:28:50.540736","INCLINATION":"53.0555","TLE_LINE2":"2 48141  53.0555   9.9188 0001568  64.9832 295.1320 15.06410924 35710","DECAY_DATE":null,"LAUNCH_DATE":"2021-04-07","BSTAR":"0.00023125000000"}];
